METOP-C                 
1 43689U 18087A   26073.60774004  .00000132  00000+0  80259-4 0  9993
2 43689  98.6755 134.8969 0002195  93.1048 267.0381 14.21498793381393
GEO-KOMPSAT-2A          
1 43823U 18100A   26073.38001069 -.00000345  00000+0  00000+0 0  9996
2 43823   0.0358  31.7652 0001616  23.6441  21.6479  1.00271065 26678
METEOR-M2 2             
1 44387U 19038A   26073.62215517 -.00000009  00000+0  15968-4 0  9996
2 44387  98.9093  59.5420 0000633 350.2531   9.8635 14.24335836347837
ARKTIKA-M 1             
1 47719U 21016A   26072.78872222 -.00000108  00000+0  00000+0 0  9991
2 47719  63.2042  71.2738 7248342 269.5023  15.1596  2.00619294 36876
FENGYUN 3E              
1 49008U 21062A   26073.56430568  .00000235  00000+0  13123-3 0  9999
2 49008  98.7519  78.0237 0002071  32.6637 327.4667 14.19894976243154
GOES 18                 
1 51850U 22021A   26073.54133532  .00000096  00000+0  00000+0 0  9993
2 51850   0.0348  37.3150 0000807  24.6626 168.0462  1.00272820  5640
NOAA 21 (JPSS-2)        
1 54234U 22150A   26073.58555316  .00000096  00000+0  66585-4 0  9992
2 54234  98.7558  13.7954 0002750  97.9050 262.2438 14.19553682173120
METEOSAT-12 (MTG-I1)    
1 54743U 22170C   26073.35453059 -.00000008  00000+0  00000+0 0  9994
2 54743   0.7114  22.9393 0001749 291.7318 344.5795  1.00271337 12024
TIANMU-1 03             
1 55973U 23039A   26073.60953060  .00023242  00000+0  50419-3 0  9997
2 55973  97.5177 244.0952 0003972  87.7266 272.4436 15.44395684166224
TIANMU-1 04             
1 55974U 23039B   26073.63166491  .00024372  00000+0  52106-3 0  9995
2 55974  97.5111 243.2769 0004564  82.6524 277.5243 15.44813796166231
TIANMU-1 05             
1 55975U 23039C   26073.58631047  .00022967  00000+0  49926-3 0  9998
2 55975  97.5157 243.7209 0003865 105.0847 255.0829 15.44335950166206
TIANMU-1 06             
1 55976U 23039D   26073.63138088  .00024487  00000+0  52304-3 0  9995
2 55976  97.5168 244.3122 0004140  99.8648 260.3067 15.44841503166238
FENGYUN 3G              
1 56232U 23055A   26073.59023300  .00037058  00000+0  60434-3 0  9995
2 56232  49.9923 113.7484 0005943 315.2638  44.7849 15.52175359165307
METEOR-M2 3             
1 57166U 23091A   26073.59545550  .00000002  00000+0  19679-4 0  9993
2 57166  98.6204 130.4607 0005098  88.0948 272.0815 14.24038155141055
TIANMU-1 07             
1 57399U 23101A   26073.62347656  .00009848  00000+0  34979-3 0  9990
2 57399  97.2722 126.4628 0004950 124.1972 235.9739 15.29211124147195
TIANMU-1 08             
1 57400U 23101B   26066.00237819  .00000346  00000+0  14775-4 0  9993
2 57400  97.2717 118.7901 0006380 134.2174 225.9592 15.29204229146020
TIANMU-1 09             
1 57401U 23101C   26073.57506823  .00009493  00000+0  33780-3 0  9996
2 57401  97.2669 125.6654 0005199 127.3130 232.8586 15.29161471147180
