[{"OBJECT_NAME":"METOP-C","OBJECT_ID":"2018-087A","EPOCH":"2026-03-14T14:35:08.739456","MEAN_MOTION":14.21498793,"ECCENTRICITY":0.00021958,"INCLINATION":98.6755,"RA_OF_ASC_NODE":134.8969,"ARG_OF_PERICENTER":93.1048,"MEAN_ANOMALY":267.0381,"EPHEMERIS_TYPE":0,"CLASSIFICATION_TYPE":"U","NORAD_CAT_ID":43689,"ELEMENT_SET_NO":999,"REV_AT_EPOCH":38139,"BSTAR":8.0259168e-5,"MEAN_MOTION_DOT":1.32e-6,"MEAN_MOTION_DDOT":0},{"OBJECT_NAME":"GEO-KOMPSAT-2A","OBJECT_ID":"2018-100A","EPOCH":"2026-03-14T09:07:12.923616","MEAN_MOTION":1.00271065,"ECCENTRICITY":0.0001616,"INCLINATION":0.0358,"RA_OF_ASC_NODE":31.7652,"ARG_OF_PERICENTER":23.6441,"MEAN_ANOMALY":21.6479,"EPHEMERIS_TYPE":0,"CLASSIFICATION_TYPE":"U","NORAD_CAT_ID":43823,"ELEMENT_SET_NO":999,"REV_AT_EPOCH":2667,"BSTAR":0,"MEAN_MOTION_DOT":-3.45e-6,"MEAN_MOTION_DDOT":0},{"OBJECT_NAME":"METEOR-M2 2","OBJECT_ID":"2019-038A","EPOCH":"2026-03-14T14:55:54.206688","MEAN_MOTION":14.24335836,"ECCENTRICITY":6.337e-5,"INCLINATION":98.9093,"RA_OF_ASC_NODE":59.542,"ARG_OF_PERICENTER":350.2531,"MEAN_ANOMALY":9.8635,"EPHEMERIS_TYPE":0,"CLASSIFICATION_TYPE":"U","NORAD_CAT_ID":44387,"ELEMENT_SET_NO":999,"REV_AT_EPOCH":34783,"BSTAR":1.5967934e-5,"MEAN_MOTION_DOT":-9.0e-8,"MEAN_MOTION_DDOT":0},{"OBJECT_NAME":"ARKTIKA-M 1","OBJECT_ID":"2021-016A","EPOCH":"2026-03-13T18:55:45.599808","MEAN_MOTION":2.00619294,"ECCENTRICITY":0.7248342,"INCLINATION":63.2042,"RA_OF_ASC_NODE":71.2738,"ARG_OF_PERICENTER":269.5023,"MEAN_ANOMALY":15.1596,"EPHEMERIS_TYPE":0,"CLASSIFICATION_TYPE":"U","NORAD_CAT_ID":47719,"ELEMENT_SET_NO":999,"REV_AT_EPOCH":3687,"BSTAR":0,"MEAN_MOTION_DOT":-1.08e-6,"MEAN_MOTION_DDOT":0},{"OBJECT_NAME":"FENGYUN 3E","OBJECT_ID":"2021-062A","EPOCH":"2026-03-14T13:32:36.010752","MEAN_MOTION":14.19894976,"ECCENTRICITY":0.00020718,"INCLINATION":98.7519,"RA_OF_ASC_NODE":78.0237,"ARG_OF_PERICENTER":32.6637,"MEAN_ANOMALY":327.4667,"EPHEMERIS_TYPE":0,"CLASSIFICATION_TYPE":"U","NORAD_CAT_ID":49008,"ELEMENT_SET_NO":999,"REV_AT_EPOCH":24315,"BSTAR":0.00013123466,"MEAN_MOTION_DOT":2.35e-6,"MEAN_MOTION_DDOT":0},{"OBJECT_NAME":"GOES 18","OBJECT_ID":"2022-021A","EPOCH":"2026-03-14T12:59:31.371648","MEAN_MOTION":1.0027282,"ECCENTRICITY":8.074e-5,"INCLINATION":0.0348,"RA_OF_ASC_NODE":37.315,"ARG_OF_PERICENTER":24.6626,"MEAN_ANOMALY":168.0462,"EPHEMERIS_TYPE":0,"CLASSIFICATION_TYPE":"U","NORAD_CAT_ID":51850,"ELEMENT_SET_NO":999,"REV_AT_EPOCH":564,"BSTAR":0,"MEAN_MOTION_DOT":9.6e-7,"MEAN_MOTION_DDOT":0},{"OBJECT_NAME":"NOAA 21 (JPSS-2)","OBJECT_ID":"2022-150A","EPOCH":"2026-03-14T14:03:11.793024","MEAN_MOTION":14.19553682,"ECCENTRICITY":0.00027507,"INCLINATION":98.7558,"RA_OF_ASC_NODE":13.7954,"ARG_OF_PERICENTER":97.905,"MEAN_ANOMALY":262.2438,"EPHEMERIS_TYPE":0,"CLASSIFICATION_TYPE":"U","NORAD_CAT_ID":54234,"ELEMENT_SET_NO":999,"REV_AT_EPOCH":17312,"BSTAR":6.658532e-5,"MEAN_MOTION_DOT":9.6e-7,"MEAN_MOTION_DDOT":0},{"OBJECT_NAME":"METEOSAT-12 (MTG-I1)","OBJECT_ID":"2022-170C","EPOCH":"2026-03-14T08:30:31.442976","MEAN_MOTION":1.00271337,"ECCENTRICITY":0.00017496,"INCLINATION":0.7114,"RA_OF_ASC_NODE":22.9393,"ARG_OF_PERICENTER":291.7318,"MEAN_ANOMALY":344.5795,"EPHEMERIS_TYPE":0,"CLASSIFICATION_TYPE":"U","NORAD_CAT_ID":54743,"ELEMENT_SET_NO":999,"REV_AT_EPOCH":1202,"BSTAR":0,"MEAN_MOTION_DOT":-8.0e-8,"MEAN_MOTION_DDOT":0},{"OBJECT_NAME":"TIANMU-1 03","OBJECT_ID":"2023-039A","EPOCH":"2026-03-14T14:37:43.443840","MEAN_MOTION":15.44395684,"ECCENTRICITY":0.00039727,"INCLINATION":97.5177,"RA_OF_ASC_NODE":244.0952,"ARG_OF_PERICENTER":87.7266,"MEAN_ANOMALY":272.4436,"EPHEMERIS_TYPE":0,"CLASSIFICATION_TYPE":"U","NORAD_CAT_ID":55973,"ELEMENT_SET_NO":999,"REV_AT_EPOCH":16622,"BSTAR":0.00050419003,"MEAN_MOTION_DOT":0.00023242,"MEAN_MOTION_DDOT":0},{"OBJECT_NAME":"TIANMU-1 04","OBJECT_ID":"2023-039B","EPOCH":"2026-03-14T15:09:35.848224","MEAN_MOTION":15.44813796,"ECCENTRICITY":0.00045643,"INCLINATION":97.5111,"RA_OF_ASC_NODE":243.2769,"ARG_OF_PERICENTER":82.6524,"MEAN_ANOMALY":277.5243,"EPHEMERIS_TYPE":0,"CLASSIFICATION_TYPE":"U","NORAD_CAT_ID":55974,"ELEMENT_SET_NO":999,"REV_AT_EPOCH":16623,"BSTAR":0.00052105974,"MEAN_MOTION_DOT":0.00024372,"MEAN_MOTION_DDOT":0},{"OBJECT_NAME":"TIANMU-1 05","OBJECT_ID":"2023-039C","EPOCH":"2026-03-14T14:04:17.224608","MEAN_MOTION":15.4433595,"ECCENTRICITY":0.0003865,"INCLINATION":97.5157,"RA_OF_ASC_NODE":243.7209,"ARG_OF_PERICENTER":105.0847,"MEAN_ANOMALY":255.0829,"EPHEMERIS_TYPE":0,"CLASSIFICATION_TYPE":"U","NORAD_CAT_ID":55975,"ELEMENT_SET_NO":999,"REV_AT_EPOCH":16620,"BSTAR":0.00049926396,"MEAN_MOTION_DOT":0.00022967,"MEAN_MOTION_DDOT":0},{"OBJECT_NAME":"TIANMU-1 06","OBJECT_ID":"2023-039D","EPOCH":"2026-03-14T15:09:11.308032","MEAN_MOTION":15.44841503,"ECCENTRICITY":0.00041402,"INCLINATION":97.5168,"RA_OF_ASC_NODE":244.3122,"ARG_OF_PERICENTER":99.8648,"MEAN_ANOMALY":260.3067,"EPHEMERIS_TYPE":0,"CLASSIFICATION_TYPE":"U","NORAD_CAT_ID":55976,"ELEMENT_SET_NO":999,"REV_AT_EPOCH":16623,"BSTAR":0.000523038,"MEAN_MOTION_DOT":0.00024487,"MEAN_MOTION_DDOT":0},{"OBJECT_NAME":"FENGYUN 3G","OBJECT_ID":"2023-055A","EPOCH":"2026-03-14T14:09:56.131200","MEAN_MOTION":15.52175359,"ECCENTRICITY":0.00059438,"INCLINATION":49.9923,"RA_OF_ASC_NODE":113.7484,"ARG_OF_PERICENTER":315.2638,"MEAN_ANOMALY":44.7849,"EPHEMERIS_TYPE":0,"CLASSIFICATION_TYPE":"U","NORAD_CAT_ID":56232,"ELEMENT_SET_NO":999,"REV_AT_EPOCH":16530,"BSTAR":0.00060434183,"MEAN_MOTION_DOT":0.00037058,"MEAN_MOTION_DDOT":0},{"OBJECT_NAME":"METEOR-M2 3","OBJECT_ID":"2023-091A","EPOCH":"2026-03-14T14:17:27.355200","MEAN_MOTION":14.24038155,"ECCENTRICITY":0.00050986,"INCLINATION":98.6204,"RA_OF_ASC_NODE":130.4607,"ARG_OF_PERICENTER":88.0948,"MEAN_ANOMALY":272.0815,"EPHEMERIS_TYPE":0,"CLASSIFICATION_TYPE":"U","NORAD_CAT_ID":57166,"ELEMENT_SET_NO":999,"REV_AT_EPOCH":14105,"BSTAR":1.9678522e-5,"MEAN_MOTION_DOT":2.0e-8,"MEAN_MOTION_DDOT":0},{"OBJECT_NAME":"TIANMU-1 07","OBJECT_ID":"2023-101A","EPOCH":"2026-03-14T14:57:48.374784","MEAN_MOTION":15.29211124,"ECCENTRICITY":0.00049504,"INCLINATION":97.2722,"RA_OF_ASC_NODE":126.4628,"ARG_OF_PERICENTER":124.1972,"MEAN_ANOMALY":235.9739,"EPHEMERIS_TYPE":0,"CLASSIFICATION_TYPE":"U","NORAD_CAT_ID":57399,"ELEMENT_SET_NO":999,"REV_AT_EPOCH":14719,"BSTAR":0.00034979043,"MEAN_MOTION_DOT":9.848e-5,"MEAN_MOTION_DDOT":0},{"OBJECT_NAME":"TIANMU-1 08","OBJECT_ID":"2023-101B","EPOCH":"2026-03-07T00:03:25.475616","MEAN_MOTION":15.29204229,"ECCENTRICITY":0.00063808,"INCLINATION":97.2717,"RA_OF_ASC_NODE":118.7901,"ARG_OF_PERICENTER":134.2174,"MEAN_ANOMALY":225.9592,"EPHEMERIS_TYPE":0,"CLASSIFICATION_TYPE":"U","NORAD_CAT_ID":57400,"ELEMENT_SET_NO":999,"REV_AT_EPOCH":14602,"BSTAR":1.4774513e-5,"MEAN_MOTION_DOT":3.46e-6,"MEAN_MOTION_DDOT":0},{"OBJECT_NAME":"TIANMU-1 09","OBJECT_ID":"2023-101C","EPOCH":"2026-03-14T13:48:05.895072","MEAN_MOTION":15.29161471,"ECCENTRICITY":0.00051995,"INCLINATION":97.2669,"RA_OF_ASC_NODE":125.6654,"ARG_OF_PERICENTER":127.313,"MEAN_ANOMALY":232.8586,"EPHEMERIS_TYPE":0,"CLASSIFICATION_TYPE":"U","NORAD_CAT_ID":57401,"ELEMENT_SET_NO":999,"REV_AT_EPOCH":14718,"BSTAR":0.00033779695,"MEAN_MOTION_DOT":9.493e-5,"MEAN_MOTION_DDOT":0}]
